[{"OBJECT_NAME":"STARLINK-30493","OBJECT_ID":"2023-161V","EPOCH":"2025-08-28T12:25:38.942112","MEAN_MOTION":15.30181128,"ECCENTRICITY":0.00011467,"INCLINATION":53.1611,"RA_OF_ASC_NODE":342.974,"ARG_OF_PERICENTER":93.6913,"MEAN_ANOMALY":266.4219,"EPHEMERIS_TYPE":0,"CLASSIFICATION_TYPE":"U","NORAD_CAT_ID":58116,"ELEMENT_SET_NO":999,"REV_AT_EPOCH":10484,"BSTAR":-4.7305123e-5,"MEAN_MOTION_DOT":-1.759e-5,"MEAN_MOTION_DDOT":0},{"OBJECT_NAME":"STARLINK-30601","OBJECT_ID":"2023-161W","EPOCH":"2025-08-28T12:34:45.929280","MEAN_MOTION":15.30182992,"ECCENTRICITY":0.00011207,"INCLINATION":53.1607,"RA_OF_ASC_NODE":343.0177,"ARG_OF_PERICENTER":83.6508,"MEAN_ANOMALY":276.462,"EPHEMERIS_TYPE":0,"CLASSIFICATION_TYPE":"U","NORAD_CAT_ID":58117,"ELEMENT_SET_NO":999,"REV_AT_EPOCH":10484,"BSTAR":-4.4851849e-5,"MEAN_MOTION_DOT":-1.686e-5,"MEAN_MOTION_DDOT":0},{"OBJECT_NAME":"STARLINK-30795","OBJECT_ID":"2023-162A","EPOCH":"2025-08-28T00:02:47.007744","MEAN_MOTION":15.02534043,"ECCENTRICITY":0.00010339,"INCLINATION":43.0032,"RA_OF_ASC_NODE":105.6,"ARG_OF_PERICENTER":269.2527,"MEAN_ANOMALY":90.8197,"EPHEMERIS_TYPE":0,"CLASSIFICATION_TYPE":"U","NORAD_CAT_ID":58118,"ELEMENT_SET_NO":999,"REV_AT_EPOCH":10316,"BSTAR":9.6676163e-5,"MEAN_MOTION_DOT":1.103e-5,"MEAN_MOTION_DDOT":0},{"OBJECT_NAME":"STARLINK-30765","OBJECT_ID":"2023-162B","EPOCH":"2025-08-28T00:28:23.842560","MEAN_MOTION":15.02508382,"ECCENTRICITY":0.00012682,"INCLINATION":43.0039,"RA_OF_ASC_NODE":105.7123,"ARG_OF_PERICENTER":256.8436,"MEAN_ANOMALY":103.2264,"EPHEMERIS_TYPE":0,"CLASSIFICATION_TYPE":"U","NORAD_CAT_ID":58119,"ELEMENT_SET_NO":999,"REV_AT_EPOCH":10316,"BSTAR":-0.00025931091,"MEAN_MOTION_DOT":-3.702e-5,"MEAN_MOTION_DDOT":0},{"OBJECT_NAME":"STARLINK-30768","OBJECT_ID":"2023-162C","EPOCH":"2025-08-28T01:33:45.017568","MEAN_MOTION":15.0251566,"ECCENTRICITY":8.63e-5,"INCLINATION":43.0039,"RA_OF_ASC_NODE":105.2123,"ARG_OF_PERICENTER":275.9752,"MEAN_ANOMALY":84.0992,"EPHEMERIS_TYPE":0,"CLASSIFICATION_TYPE":"U","NORAD_CAT_ID":58120,"ELEMENT_SET_NO":999,"REV_AT_EPOCH":10317,"BSTAR":-0.00014566506,"MEAN_MOTION_DOT":-2.169e-5,"MEAN_MOTION_DDOT":0},{"OBJECT_NAME":"STARLINK-30799","OBJECT_ID":"2023-162D","EPOCH":"2025-08-28T00:26:45.395808","MEAN_MOTION":15.02535326,"ECCENTRICITY":7.828e-5,"INCLINATION":43.0043,"RA_OF_ASC_NODE":105.7009,"ARG_OF_PERICENTER":229.8155,"MEAN_ANOMALY":130.2619,"EPHEMERIS_TYPE":0,"CLASSIFICATION_TYPE":"U","NORAD_CAT_ID":58121,"ELEMENT_SET_NO":999,"REV_AT_EPOCH":10316,"BSTAR":-8.471952e-6,"MEAN_MOTION_DOT":-3.18e-6,"MEAN_MOTION_DDOT":0},{"OBJECT_NAME":"STARLINK-30759","OBJECT_ID":"2023-162E","EPOCH":"2025-08-27T23:54:47.671776","MEAN_MOTION":15.0251771,"ECCENTRICITY":0.00012519,"INCLINATION":43.0042,"RA_OF_ASC_NODE":105.5539,"ARG_OF_PERICENTER":267.3805,"MEAN_ANOMALY":92.6894,"EPHEMERIS_TYPE":0,"CLASSIFICATION_TYPE":"U","NORAD_CAT_ID":58122,"ELEMENT_SET_NO":999,"REV_AT_EPOCH":10317,"BSTAR":0.00015840216,"MEAN_MOTION_DOT":1.936e-5,"MEAN_MOTION_DDOT":0},{"OBJECT_NAME":"STARLINK-30781","OBJECT_ID":"2023-162F","EPOCH":"2025-08-27T23:53:12.185952","MEAN_MOTION":15.02528812,"ECCENTRICITY":0.00011396,"INCLINATION":43.0032,"RA_OF_ASC_NODE":105.5425,"ARG_OF_PERICENTER":264.0784,"MEAN_ANOMALY":95.9929,"EPHEMERIS_TYPE":0,"CLASSIFICATION_TYPE":"U","NORAD_CAT_ID":58123,"ELEMENT_SET_NO":999,"REV_AT_EPOCH":10316,"BSTAR":-6.4908769e-5,"MEAN_MOTION_DOT":-1.08e-5,"MEAN_MOTION_DDOT":0},{"OBJECT_NAME":"STARLINK-30754","OBJECT_ID":"2023-162G","EPOCH":"2025-08-28T00:21:58.237632","MEAN_MOTION":15.02529464,"ECCENTRICITY":0.00012304,"INCLINATION":43.0037,"RA_OF_ASC_NODE":105.6752,"ARG_OF_PERICENTER":246.841,"MEAN_ANOMALY":113.2303,"EPHEMERIS_TYPE":0,"CLASSIFICATION_TYPE":"U","NORAD_CAT_ID":58124,"ELEMENT_SET_NO":999,"REV_AT_EPOCH":9737,"BSTAR":-4.8215963e-5,"MEAN_MOTION_DOT":-8.55e-6,"MEAN_MOTION_DDOT":0},{"OBJECT_NAME":"STARLINK-30766","OBJECT_ID":"2023-162H","EPOCH":"2025-08-27T23:48:23.974560","MEAN_MOTION":15.02531902,"ECCENTRICITY":0.00012651,"INCLINATION":43.0032,"RA_OF_ASC_NODE":105.5191,"ARG_OF_PERICENTER":265.6456,"MEAN_ANOMALY":94.4242,"EPHEMERIS_TYPE":0,"CLASSIFICATION_TYPE":"U","NORAD_CAT_ID":58125,"ELEMENT_SET_NO":999,"REV_AT_EPOCH":10316,"BSTAR":-2.8739565e-5,"MEAN_MOTION_DOT":-5.92e-6,"MEAN_MOTION_DDOT":0},{"OBJECT_NAME":"STARLINK-30767","OBJECT_ID":"2023-162J","EPOCH":"2025-08-27T22:07:52.584960","MEAN_MOTION":15.02533106,"ECCENTRICITY":0.00010634,"INCLINATION":43.0026,"RA_OF_ASC_NODE":105.8563,"ARG_OF_PERICENTER":262.0302,"MEAN_ANOMALY":98.042,"EPHEMERIS_TYPE":0,"CLASSIFICATION_TYPE":"U","NORAD_CAT_ID":58126,"ELEMENT_SET_NO":999,"REV_AT_EPOCH":10315,"BSTAR":-2.738702e-6,"MEAN_MOTION_DOT":-2.41e-6,"MEAN_MOTION_DDOT":0},{"OBJECT_NAME":"STARLINK-30790","OBJECT_ID":"2023-162K","EPOCH":"2025-08-27T22:03:05.144256","MEAN_MOTION":15.02532718,"ECCENTRICITY":8.036e-5,"INCLINATION":43.0021,"RA_OF_ASC_NODE":105.8282,"ARG_OF_PERICENTER":272.0121,"MEAN_ANOMALY":88.0629,"EPHEMERIS_TYPE":0,"CLASSIFICATION_TYPE":"U","NORAD_CAT_ID":58127,"ELEMENT_SET_NO":999,"REV_AT_EPOCH":10315,"BSTAR":-1.025196e-6,"MEAN_MOTION_DOT":-2.17e-6,"MEAN_MOTION_DDOT":0},{"OBJECT_NAME":"STARLINK-30787","OBJECT_ID":"2023-162L","EPOCH":"2025-08-27T21:58:15.810528","MEAN_MOTION":15.0255306,"ECCENTRICITY":0.0001122,"INCLINATION":43.0035,"RA_OF_ASC_NODE":105.8039,"ARG_OF_PERICENTER":255.5342,"MEAN_ANOMALY":104.5376,"EPHEMERIS_TYPE":0,"CLASSIFICATION_TYPE":"U","NORAD_CAT_ID":58128,"ELEMENT_SET_NO":999,"REV_AT_EPOCH":10315,"BSTAR":0.00019036154,"MEAN_MOTION_DOT":2.37e-5,"MEAN_MOTION_DDOT":0},{"OBJECT_NAME":"STARLINK-30756","OBJECT_ID":"2023-162M","EPOCH":"2025-08-27T08:19:53.564736","MEAN_MOTION":15.02535907,"ECCENTRICITY":0.00012991,"INCLINATION":43.0051,"RA_OF_ASC_NODE":109.2625,"ARG_OF_PERICENTER":270.4529,"MEAN_ANOMALY":89.6164,"EPHEMERIS_TYPE":0,"CLASSIFICATION_TYPE":"U","NORAD_CAT_ID":58129,"ELEMENT_SET_NO":999,"REV_AT_EPOCH":10306,"BSTAR":0.00026566817,"MEAN_MOTION_DOT":3.387e-5,"MEAN_MOTION_DDOT":0},{"OBJECT_NAME":"STARLINK-30783","OBJECT_ID":"2023-162N","EPOCH":"2025-08-28T01:04:56.585568","MEAN_MOTION":15.02536699,"ECCENTRICITY":0.00010814,"INCLINATION":43.0046,"RA_OF_ASC_NODE":105.0528,"ARG_OF_PERICENTER":268.1283,"MEAN_ANOMALY":91.9436,"EPHEMERIS_TYPE":0,"CLASSIFICATION_TYPE":"U","NORAD_CAT_ID":58130,"ELEMENT_SET_NO":999,"REV_AT_EPOCH":10317,"BSTAR":3.7074183e-5,"MEAN_MOTION_DOT":2.97e-6,"MEAN_MOTION_DDOT":0},{"OBJECT_NAME":"STARLINK-30757","OBJECT_ID":"2023-162P","EPOCH":"2025-08-27T23:24:25.659936","MEAN_MOTION":15.02537641,"ECCENTRICITY":7.926e-5,"INCLINATION":43.0035,"RA_OF_ASC_NODE":105.3891,"ARG_OF_PERICENTER":262.8167,"MEAN_ANOMALY":97.2586,"EPHEMERIS_TYPE":0,"CLASSIFICATION_TYPE":"U","NORAD_CAT_ID":58131,"ELEMENT_SET_NO":999,"REV_AT_EPOCH":10316,"BSTAR":-9.619042e-6,"MEAN_MOTION_DOT":-3.33e-6,"MEAN_MOTION_DDOT":0}]
