STARLINK-30493          
1 58116U 23161V   25240.51781183 -.00001759  00000+0 -47305-4 0  9997
2 58116  53.1611 342.9740 0001146  93.6913 266.4219 15.30181128104849
STARLINK-30601          
1 58117U 23161W   25240.52414270 -.00001686  00000+0 -44852-4 0  9992
2 58117  53.1607 343.0177 0001120  83.6508 276.4620 15.30182992104849
STARLINK-30795          
1 58118U 23162A   25240.00193296  .00001103  00000+0  96676-4 0  9992
2 58118  43.0032 105.6000 0001033 269.2527  90.8197 15.02534043103161
STARLINK-30765          
1 58119U 23162B   25240.01972040 -.00003702  00000+0 -25931-3 0  9990
2 58119  43.0039 105.7123 0001268 256.8436 103.2264 15.02508382103168
STARLINK-30768          
1 58120U 23162C   25240.06510437 -.00002169  00000+0 -14567-3 0  9994
2 58120  43.0039 105.2123 0000863 275.9752  84.0992 15.02515660103170
STARLINK-30799          
1 58121U 23162D   25240.01858097 -.00000318  00000+0 -84720-5 0  9991
2 58121  43.0043 105.7009 0000782 229.8155 130.2619 15.02535326103169
STARLINK-30759          
1 58122U 23162E   25239.99638509  .00001936  00000+0  15840-3 0  9991
2 58122  43.0042 105.5539 0001251 267.3805  92.6894 15.02517710103170
STARLINK-30781          
1 58123U 23162F   25239.99527993 -.00001080  00000+0 -64909-4 0  9999
2 58123  43.0032 105.5425 0001139 264.0784  95.9929 15.02528812103168
STARLINK-30754          
1 58124U 23162G   25240.01525738 -.00000855  00000+0 -48216-4 0  9992
2 58124  43.0037 105.6752 0001230 246.8410 113.2303 15.02529464 97373
STARLINK-30766          
1 58125U 23162H   25239.99194415 -.00000592  00000+0 -28740-4 0  9990
2 58125  43.0032 105.5191 0001265 265.6456  94.4242 15.02531902103169
STARLINK-30767          
1 58126U 23162J   25239.92213640 -.00000241  00000+0 -27387-5 0  9994
2 58126  43.0026 105.8563 0001063 262.0302  98.0420 15.02533106103151
STARLINK-30790          
1 58127U 23162K   25239.91880954 -.00000217  00000+0 -10252-5 0  9998
2 58127  43.0021 105.8282 0000803 272.0121  88.0629 15.02532718103154
STARLINK-30787          
1 58128U 23162L   25239.91546077  .00002370  00000+0  19036-3 0  9991
2 58128  43.0035 105.8039 0001122 255.5342 104.5376 15.02553060103152
STARLINK-30756          
1 58129U 23162M   25239.34714774  .00003387  00000+0  26567-3 0  9996
2 58129  43.0051 109.2625 0001299 270.4529  89.6164 15.02535907103066
STARLINK-30783          
1 58130U 23162N   25240.04509937  .00000297  00000+0  37074-4 0  9993
2 58130  43.0046 105.0528 0001081 268.1283  91.9436 15.02536699103177
STARLINK-30757          
1 58131U 23162P   25239.97529699 -.00000333  00000+0 -96190-5 0  9999
2 58131  43.0035 105.3891 0000792 262.8167  97.2586 15.02537641103164
